NORAD_CAT_ID,OBJECT_NAME,OBJECT_TYPE,EPOCH,MEAN_MOTION,ECCENTRICITY,INCLINATION,RA_OF_ASC_NODE,ARG_OF_PERICENTER,MEAN_ANOMALY,BSTAR,MEAN_MOTION_DOT,MEAN_MOTION_DDOT,TLE_LINE0,TLE_LINE1,TLE_LINE2,SEMIMAJOR_AXIS,PERIOD,APOGEE,PERIGEE,DECAYED
52307.0,STARLINK-3755,PAYLOAD,2023-08-18 00:09:27,15.08828507,0.0001845,53.2181,335.0761,79.0955,281.0244,4.052e-05,3.57e-06,0.0,0 STARLINK-3755,1 52307U 22041AY  23230.00656410  .00000357  00000-0  40520-4 0  9998,2 52307  53.2181 335.0761 0001845  79.0955 281.0244 15.08828507 74610,6917.916,95.438,541.057,538.504,0.0
52307.0,STARLINK-3755,PAYLOAD,2023-08-18 16:03:18,15.08836594,0.0001294,53.2177,332.103,91.8371,268.2769,7.0881e-05,8.4e-06,0.0,0 STARLINK-3755,1 52307U 22041AY  23230.66895976  .00000840  00000-0  70881-4 0  9992,2 52307  53.2177 332.1030 0001294  91.8371 268.2769 15.08836594 74719,6917.891,95.438,540.651,538.861,0.0
52307.0,STARLINK-3755,PAYLOAD,2023-08-19 11:07:55,15.08844159,0.0001395,53.2167,328.5358,81.332,278.783,0.00014374,2.001e-05,0.0,0 STARLINK-3755,1 52307U 22041AY  23231.46383551  .00002001  00000-0  14374-3 0  9997,2 52307  53.2167 328.5358 0001395  81.3320 278.7830 15.08844159 74834,6917.868,95.437,540.698,538.768,0.0
52307.0,STARLINK-3755,PAYLOAD,2023-08-20 12:34:04,15.08871153,0.0001033,53.2169,323.7784,71.2859,288.8245,-0.00087751,-0.00014238,0.0,0 STARLINK-3755,1 52307U 22041AY  23232.52366101 -.00014238  00000-0 -87751-3 0  9993,2 52307  53.2169 323.7784 0001033  71.2859 288.8245 15.08871153 74993,6917.785,95.436,540.365,538.936,0.0
52307.0,STARLINK-3755,PAYLOAD,2023-08-20 15:44:52,15.08842763,0.0001225,53.2175,323.1836,75.0028,285.11,0.00019441,2.808e-05,0.0,0 STARLINK-3755,1 52307U 22041AY  23232.65615808  .00002808  00000-0  19441-3 0  9997,2 52307  53.2175 323.1836 0001225  75.0028 285.1100 15.08842763 75014,6917.872,95.437,540.584,538.89,0.0
52307.0,STARLINK-3755,PAYLOAD,2023-08-22 12:15:40,15.08839371,0.0001259,53.2181,314.8571,86.6402,273.4734,8.5985e-05,1.081e-05,0.0,0 STARLINK-3755,1 52307U 22041AY  23234.51088052  .00001081  00000-0  85985-4 0  9998,2 52307  53.2181 314.8571 0001259  86.6402 273.4734 15.08839371 75299,6917.882,95.438,540.618,538.876,0.0
52307.0,STARLINK-3755,PAYLOAD,2023-08-24 15:08:00,15.08833199,0.0001307,53.2182,305.3452,88.6977,271.4165,0.00013828,1.913e-05,0.0,0 STARLINK-3755,1 52307U 22041AY  23236.63056597  .00001913  00000-0  13828-3 0  9992,2 52307  53.2182 305.3452 0001307  88.6977 271.4165 15.08833199 74406,6917.901,95.438,540.67,538.862,0.0
52307.0,STARLINK-3755,PAYLOAD,2023-08-25 11:48:01,15.08839171,0.0001474,53.2187,301.4737,77.7957,282.32,9.2262e-05,1.181e-05,0.0,0 STARLINK-3755,1 52307U 22041AY  23237.49168514  .00001181  00000-0  92262-4 0  9997,2 52307  53.2187 301.4737 0001474  77.7957 282.3200 15.08839171 74537,6917.883,95.438,540.768,538.728,0.0
52307.0,STARLINK-3755,PAYLOAD,2023-08-25 16:34:10,15.08842542,0.0001525,53.2191,300.5808,78.468,281.6484,0.00011879,1.603e-05,0.0,0 STARLINK-3755,1 52307U 22041AY  23237.69040251  .00001603  00000-0  11879-3 0  9999,2 52307  53.2191 300.5808 0001525  78.4680 281.6484 15.08842542 75778,6917.873,95.437,540.793,538.683,0.0
52307.0,STARLINK-3755,PAYLOAD,2023-08-26 10:03:25,15.08838614,0.0001311,53.2174,297.3121,84.839,275.2752,4.1565e-05,3.74e-06,0.0,0 STARLINK-3755,1 52307U 22041AY  23238.41904791  .00000374  00000-0  41565-4 0  9998,2 52307  53.2174 297.3121 0001311  84.8390 275.2752 15.08838614 75886,6917.885,95.438,540.657,538.843,0.0
52307.0,STARLINK-3755,PAYLOAD,2023-08-26 13:14:11,15.08843372,0.0001288,53.2176,296.7165,86.9247,273.1893,8.1044e-05,1.002e-05,0.0,0 STARLINK-3755,1 52307U 22041AY  23238.55152364  .00001002  00000-0  81044-4 0  9999,2 52307  53.2176 296.7165 0001288  86.9247 273.1893 15.08843372 74694,6917.87,95.437,540.626,538.844,0.0
52307.0,STARLINK-3755,PAYLOAD,2023-08-27 09:54:12,15.08843225,0.0001347,53.2171,292.8522,86.1026,274.012,2.8929e-05,1.73e-06,0.0,0 STARLINK-3755,1 52307U 22041AY  23239.41264685  .00000173  00000-0  28929-4 0  9996,2 52307  53.2171 292.8522 0001347  86.1026 274.0120 15.08843225 74821,6917.871,95.437,540.667,538.804,0.0
52307.0,STARLINK-3755,PAYLOAD,2023-08-27 14:40:21,15.08848229,0.0001334,53.2171,291.9596,106.6227,253.4912,6.6073e-05,7.64e-06,0.0,0 STARLINK-3755,1 52307U 22041AY  23239.61136117  .00000764  00000-0  66073-4 0  9994,2 52307  53.2171 291.9596 0001334 106.6227 253.4912 15.08848229 76066,6917.855,95.437,540.643,538.797,0.0
52307.0,STARLINK-3755,PAYLOAD,2023-08-28 03:23:27,15.08837033,0.000136,53.2172,289.5815,78.1089,282.0056,8.093e-05,1e-05,0.0,0 STARLINK-3755,1 52307U 22041AY  23240.14128858  .00001000  00000-0  80930-4 0  9999,2 52307  53.2172 289.5815 0001360  78.1089 282.0056 15.08837033 76149,6917.889,95.438,540.695,538.814,0.0
52307.0,STARLINK-3755,PAYLOAD,2023-08-28 14:31:08,15.08848117,0.0001373,53.2172,287.4993,90.7701,269.3448,8.7479e-05,1.105e-05,0.0,0 STARLINK-3755,1 52307U 22041AY  23240.60496074  .00001105  00000-0  87479-4 0  9999,2 52307  53.2172 287.4993 0001373  90.7701 269.3448 15.08848117 76214,6917.856,95.437,540.67,538.771,0.0
52307.0,STARLINK-3755,PAYLOAD,2023-08-28 20:52:41,15.08843738,0.0001591,53.2178,286.3094,73.5645,286.5522,2.8202e-05,1.61e-06,0.0,0 STARLINK-3755,1 52307U 22041AY  23240.86992523  .00000161  00000-0  28202-4 0  9997,2 52307  53.2178 286.3094 0001591  73.5645 286.5522 15.08843738 75046,6917.869,95.437,540.835,538.633,0.0
52307.0,STARLINK-3755,PAYLOAD,2023-08-29 12:46:32,15.08843264,0.0001458,53.2174,283.3363,93.6128,266.5031,7.1367e-05,8.48e-06,0.0,0 STARLINK-3755,1 52307U 22041AY  23241.53232409  .00000848  00000-0  71367-4 0  9994,2 52307  53.2174 283.3363 0001458  93.6128 266.5031 15.08843264 75147,6917.87,95.437,540.744,538.727,0.0
52307.0,STARLINK-3755,PAYLOAD,2023-08-30 09:26:34,15.08837547,0.0001405,53.2171,279.4699,90.9213,269.194,8.1152e-06,-1.59e-06,0.0,0 STARLINK-3755,1 52307U 22041AY  23242.39345014 -.00000159  00000-0  81152-5 0  9996,2 52307  53.2171 279.4699 0001405  90.9213 269.1940 15.08837547 76482,6917.888,95.438,540.725,538.781,0.0
52307.0,STARLINK-3755,PAYLOAD,2023-08-30 18:58:52,15.08839042,0.0001281,53.2166,277.6847,91.0006,269.1133,-1.503e-05,-5.27e-06,0.0,0 STARLINK-3755,1 52307U 22041AY  23242.79088963 -.00000527  00000-0 -15030-4 0  9998,2 52307  53.2166 277.6847 0001281  91.0006 269.1133 15.08839042 75334,6917.883,95.438,540.634,538.862,0.0
52307.0,STARLINK-3755,PAYLOAD,2023-08-31 14:03:30,15.0883922,0.0001343,53.2166,274.1181,91.4563,268.6583,4.6414e-05,4.51e-06,0.0,0 STARLINK-3755,1 52307U 22041AY  23243.58577016  .00000451  00000-0  46414-4 0  9992,2 52307  53.2166 274.1181 0001343  91.4563 268.6583 15.08839220 76666,6917.883,95.438,540.677,538.819,0.0
52307.0,STARLINK-3755,PAYLOAD,2023-09-01 12:18:54,15.08836208,0.0001408,53.2174,269.9535,88.2296,271.8858,7.752e-05,9.46e-06,0.0,0 STARLINK-3755,1 52307U 22041AY  23244.51313458  .00000946  00000-0  77520-4 0  9995,2 52307  53.2174 269.9535 0001408  88.2296 271.8858 15.08836208 75594,6917.892,95.438,540.731,538.783,0.0
52307.0,STARLINK-3755,PAYLOAD,2023-09-01 18:40:27,15.08842226,0.0001449,53.2172,268.7639,88.0798,272.036,4.0222e-05,3.52e-06,0.0,0 STARLINK-3755,1 52307U 22041AY  23244.77809176  .00000352  00000-0  40222-4 0  9990,2 52307  53.2172 268.7639 0001449  88.0798 272.0360 15.08842226 76841,6917.874,95.437,540.741,538.736,0.0
52307.0,STARLINK-3755,PAYLOAD,2023-09-02 10:34:18,15.08848056,0.000143,53.2175,265.7896,87.5507,272.5649,0.00010613,1.402e-05,0.0,0 STARLINK-3755,1 52307U 22041AY  23245.44048638  .00001402  00000-0  10613-3 0  9990,2 52307  53.2175 265.7896 0001430  87.5507 272.5649 15.08848056 75737,6917.856,95.437,540.71,538.732,0.0
52307.0,STARLINK-3755,PAYLOAD,2023-09-02 18:31:14,15.08839157,0.0001299,53.2182,264.3025,88.8411,271.273,7.015e-05,8.29e-06,0.0,0 STARLINK-3755,1 52307U 22041AY  23245.77169231  .00000829  00000-0  70150-4 0  9994,2 52307  53.2182 264.3025 0001299  88.8411 271.2730 15.08839157 75789,6917.883,95.438,540.647,538.849,0.0
52307.0,STARLINK-3755,PAYLOAD,2023-09-03 00:52:47,15.08835208,0.0001386,53.2179,263.1132,88.4259,271.6892,3.3326e-05,2.42e-06,0.0,0 STARLINK-3755,1 52307U 22041AY  23246.03665643  .00000242  00000-0  33326-4 0  9995,2 52307  53.2179 263.1132 0001386  88.4259 271.6892 15.08835208 77030,6917.895,95.438,540.719,538.801,0.0
52307.0,STARLINK-3755,PAYLOAD,2023-09-03 08:49:42,15.08844665,0.0001407,53.2167,261.6269,88.4749,271.6404,9.3398e-05,1.199e-05,0.0,0 STARLINK-3755,1 52307U 22041AY  23246.36784980  .00001199  00000-0  93398-4 0  9994,2 52307  53.2167 261.6269 0001407  88.4749 271.6404 15.08844665 75875,6917.866,95.437,540.704,538.758,0.0
52307.0,STARLINK-3755,PAYLOAD,2023-09-03 18:22:01,15.08842496,0.0001424,53.2166,259.8431,88.4607,271.6548,6.9279e-05,8.15e-06,0.0,0 STARLINK-3755,1 52307U 22041AY  23246.76529186  .00000815  00000-0  69279-4 0  9998,2 52307  53.2166 259.8431 0001424  88.4607 271.6548 15.08842496 77147,6917.873,95.437,540.723,538.753,0.0
52307.0,STARLINK-3755,PAYLOAD,2023-09-04 10:15:52,15.08839089,0.0001432,53.2154,256.8705,87.9877,272.1279,-4.3718e-05,-9.84e-06,0.0,0 STARLINK-3755,1 52307U 22041AY  23247.42769352 -.00000984  00000-0 -43718-4 0  9992,2 52307  53.2154 256.8705 0001432  87.9877 272.1279 15.08839089 76035,6917.883,95.438,540.739,538.758,0.0
52307.0,STARLINK-3755,PAYLOAD,2023-09-04 18:12:48,15.08839054,0.0001442,53.2156,255.3836,87.4337,272.682,-4.1937e-05,-9.55e-06,0.0,0 STARLINK-3755,1 52307U 22041AY  23247.75889455 -.00000955  00000-0 -41937-4 0  9994,2 52307  53.2156 255.3836 0001442  87.4337 272.6820 15.08839054 77291,6917.883,95.438,540.746,538.751,0.0
52307.0,STARLINK-3755,PAYLOAD,2023-09-05 11:42:03,15.08841006,0.0001505,53.2156,252.112,90.1975,269.9189,0.00014783,2.066e-05,0.0,0 STARLINK-3755,1 52307U 22041AY  23248.48753587  .00002066  00000-0  14783-3 0  9992,2 52307  53.2156 252.1120 0001505  90.1975 269.9189 15.08841006 76196,6917.877,95.437,540.783,538.701,0.0
